******** Week 554 almanac for PRN-01 ********
ID:                         01
Health:                     063
Eccentricity:               0.4511356354E-002
Time of Applicability(s):  589824.0000
Orbital Inclination(rad):   0.9638824463
Rate of Right Ascen(r/s):  -0.8167262422E-008
SQRT(A)  (m 1/2):           5154.719238
Right Ascen at Week(rad):  -0.1856131315E+001
Argument of Perigee(rad):   0.862631202
Mean Anom(rad):            -0.1192799211E+001
Af0(s):                    -0.1077651978E-003
Af1(s/s):                  -0.3637978807E-011
week:                        554

******** Week 554 almanac for PRN-02 ********
ID:                         02
Health:                     000
Eccentricity:               0.9489059448E-002
Time of Applicability(s):  589824.0000
Orbital Inclination(rad):   0.9405250549
Rate of Right Ascen(r/s):  -0.8032657206E-008
SQRT(A)  (m 1/2):           5153.749023
Right Ascen at Week(rad):   0.2279586792E+000
Argument of Perigee(rad):   3.016771674
Mean Anom(rad):             0.2877042413E+001
Af0(s):                     0.2450942993E-003
Af1(s/s):                   0.3637978807E-011
week:                        554

******** Week 554 almanac for PRN-03 ********
ID:                         03
Health:                     000
Eccentricity:               0.1295328140E-001
Time of Applicability(s):  589824.0000
Orbital Inclination(rad):   0.9269580841
Rate of Right Ascen(r/s):  -0.8203642210E-008
SQRT(A)  (m 1/2):           5153.645996
Right Ascen at Week(rad):  -0.9235384464E+000
Argument of Perigee(rad):   0.987558961
Mean Anom(rad):             0.2800606608E+001
Af0(s):                     0.5397796631E-003
Af1(s/s):                   0.3637978807E-011
week:                        554

******** Week 554 almanac for PRN-04 ********
ID:                         04
Health:                     000
Eccentricity:               0.9079933167E-002
Time of Applicability(s):  589824.0000
Orbital Inclination(rad):   0.9396610260
Rate of Right Ascen(r/s):  -0.8061761037E-008
SQRT(A)  (m 1/2):           5153.616211
Right Ascen at Week(rad):   0.2458709478E+000
Argument of Perigee(rad):   0.603021502
Mean Anom(rad):            -0.3253320456E+000
Af0(s):                     0.5722045898E-004
Af1(s/s):                   0.7275957614E-011
week:                        554

******** Week 554 almanac for PRN-05 ********
ID:                         05
Health:                     000
Eccentricity:               0.1878261566E-002
Time of Applicability(s):  589824.0000
Orbital Inclination(rad):   0.9587097168
Rate of Right Ascen(r/s):  -0.8236384019E-008
SQRT(A)  (m 1/2):           5153.622559
Right Ascen at Week(rad):   0.1287332654E+001
Argument of Perigee(rad):   0.345228434
Mean Anom(rad):            -0.1876134872E+001
Af0(s):                    -0.1907348633E-005
Af1(s/s):                   0.0000000000E+000
week:                        554

******** Week 554 almanac for PRN-06 ********
ID:                         06
Health:                     000
Eccentricity:               0.6192684174E-002
Time of Applicability(s):  589824.0000
Orbital Inclination(rad):   0.9343700409
Rate of Right Ascen(r/s):  -0.8098140825E-008
SQRT(A)  (m 1/2):           5153.610352
Right Ascen at Week(rad):  -0.8532973528E+000
Argument of Perigee(rad):  -1.105027914
Mean Anom(rad):            -0.1240426064E+001
Af0(s):                     0.6694793701E-003
Af1(s/s):                  -0.7275957614E-011
week:                        554

******** Week 554 almanac for PRN-07 ********
ID:                         07
Health:                     000
Eccentricity:               0.3346443176E-002
Time of Applicability(s):  589824.0000
Orbital Inclination(rad):   0.9714260101
Rate of Right Ascen(r/s):  -0.7763446774E-008
SQRT(A)  (m 1/2):           5153.673340
Right Ascen at Week(rad):  -0.2895420909E+001
Argument of Perigee(rad):   3.047389865
Mean Anom(rad):             0.1283302307E+001
Af0(s):                     0.9536743164E-006
Af1(s/s):                   0.0000000000E+000
week:                        554

******** Week 554 almanac for PRN-08 ********
ID:                         08
Health:                     000
Eccentricity:               0.1099348068E-001
Time of Applicability(s):  589824.0000
Orbital Inclination(rad):   0.9927577972
Rate of Right Ascen(r/s):  -0.7574271876E-008
SQRT(A)  (m 1/2):           5153.659668
Right Ascen at Week(rad):  -0.2828521252E+001
Argument of Perigee(rad):   3.093803287
Mean Anom(rad):             0.6582264900E+000
Af0(s):                     0.4768371582E-005
Af1(s/s):                   0.0000000000E+000
week:                        554

******** Week 554 almanac for PRN-09 ********
ID:                         09
Health:                     063
Eccentricity:               0.1682901382E-001
Time of Applicability(s):  589824.0000
Orbital Inclination(rad):   0.9805698395
Rate of Right Ascen(r/s):  -0.7661583368E-008
SQRT(A)  (m 1/2):           5153.683594
Right Ascen at Week(rad):  -0.2927562952E+001
Argument of Perigee(rad):   1.506427526
Mean Anom(rad):            -0.4427376986E+000
Af0(s):                     0.1163482666E-003
Af1(s/s):                   0.3637978807E-011
week:                        554

******** Week 554 almanac for PRN-10 ********
ID:                         10
Health:                     000
Eccentricity:               0.9173870087E-002
Time of Applicability(s):  589824.0000
Orbital Inclination(rad):   0.9537315369
Rate of Right Ascen(r/s):  -0.8280039765E-008
SQRT(A)  (m 1/2):           5153.423828
Right Ascen at Week(rad):   0.1313371062E+001
Argument of Perigee(rad):   0.665628195
Mean Anom(rad):            -0.1820286512E+001
Af0(s):                    -0.4005432129E-004
Af1(s/s):                   0.0000000000E+000
week:                        554

******** Week 554 almanac for PRN-11 ********
ID:                         11
Health:                     000
Eccentricity:               0.1054954529E-001
Time of Applicability(s):  589824.0000
Orbital Inclination(rad):   0.8889980316
Rate of Right Ascen(r/s):  -0.8472852642E-008
SQRT(A)  (m 1/2):           5153.671875
Right Ascen at Week(rad):   0.1184713840E-001
Argument of Perigee(rad):   0.800211430
Mean Anom(rad):             0.1170038223E+001
Af0(s):                    -0.5531311035E-004
Af1(s/s):                  -0.3637978807E-011
week:                        554

******** Week 554 almanac for PRN-12 ********
ID:                         12
Health:                     000
Eccentricity:               0.3534793854E-002
Time of Applicability(s):  589824.0000
Orbital Inclination(rad):   0.9699573517
Rate of Right Ascen(r/s):  -0.8094502846E-008
SQRT(A)  (m 1/2):           5153.658691
Right Ascen at Week(rad):  -0.1842015862E+001
Argument of Perigee(rad):  -0.500204682
Mean Anom(rad):             0.1315299034E+001
Af0(s):                    -0.1277923584E-003
Af1(s/s):                   0.3637978807E-011
week:                        554

******** Week 554 almanac for PRN-13 ********
ID:                         13
Health:                     000
Eccentricity:               0.4357814789E-002
Time of Applicability(s):  589824.0000
Orbital Inclination(rad):   0.9931526184
Rate of Right Ascen(r/s):  -0.7501512300E-008
SQRT(A)  (m 1/2):           5153.523926
Right Ascen at Week(rad):   0.2405878782E+001
Argument of Perigee(rad):   1.659779191
Mean Anom(rad):            -0.2488548636E+001
Af0(s):                     0.3051757812E-003
Af1(s/s):                   0.0000000000E+000
week:                        554

******** Week 554 almanac for PRN-14 ********
ID:                         14
Health:                     000
Eccentricity:               0.4960536957E-002
Time of Applicability(s):  589824.0000
Orbital Inclination(rad):   0.9864177704
Rate of Right Ascen(r/s):  -0.7599737728E-008
SQRT(A)  (m 1/2):           5153.687012
Right Ascen at Week(rad):   0.2384378791E+001
Argument of Perigee(rad):  -2.116517425
Mean Anom(rad):            -0.2677078485E+001
Af0(s):                     0.3242492676E-004
Af1(s/s):                   0.3637978807E-011
week:                        554

******** Week 554 almanac for PRN-15 ********
ID:                         15
Health:                     000
Eccentricity:               0.2465248108E-002
Time of Applicability(s):  589824.0000
Orbital Inclination(rad):   0.9540309906
Rate of Right Ascen(r/s):  -0.7927155821E-008
SQRT(A)  (m 1/2):           5153.695801
Right Ascen at Week(rad):   0.2321816206E+001
Argument of Perigee(rad):  -0.194914460
Mean Anom(rad):            -0.2750878811E+001
Af0(s):                    -0.2880096436E-003
Af1(s/s):                   0.3637978807E-011
week:                        554

******** Week 554 almanac for PRN-16 ********
ID:                         16
Health:                     000
Eccentricity:               0.5863189697E-002
Time of Applicability(s):  589824.0000
Orbital Inclination(rad):   0.9711971283
Rate of Right Ascen(r/s):  -0.8087226888E-008
SQRT(A)  (m 1/2):           5153.686035
Right Ascen at Week(rad):  -0.1824645042E+001
Argument of Perigee(rad):  -0.254368901
Mean Anom(rad):            -0.1005279064E+001
Af0(s):                    -0.6008148193E-004
Af1(s/s):                  -0.3637978807E-011
week:                        554

******** Week 554 almanac for PRN-17 ********
ID:                         17
Health:                     000
Eccentricity:               0.5348205566E-002
Time of Applicability(s):  589824.0000
Orbital Inclination(rad):   0.9601364136
Rate of Right Ascen(r/s):  -0.7821654435E-008
SQRT(A)  (m 1/2):           5153.541016
Right Ascen at Week(rad):  -0.7812081575E+000
Argument of Perigee(rad):  -2.528865457
Mean Anom(rad):            -0.2247369170E+001
Af0(s):                     0.1430511475E-003
Af1(s/s):                   0.3637978807E-011
week:                        554

